EXPRESS AMU-3           
1 50002U 21123B   26087.19821799 -.00000341  00000+0  00000+0 0  9992
2 50002   0.0171 229.8195 0000196  48.5209  81.6340  1.00272369  6220
